STARLINK-36616          
1 67672U 26022AA  26042.91668981 -.01770670  87008-3 -53570-2 0  9990
2 67672  97.2790  75.6160 0001434  84.3717 189.4308 15.92240792  2759
COSMOS 2600             
1 67674U 26023A   26042.92132333  .00079971  00000+0  39475-3 0  9996
2 67674  96.6491 119.3724 0002023  67.3429 292.8055 15.81875694   973
2026-023B               
1 67675U 26023B   26042.95890233  .00016360  00000+0  70817-3 0  9998
2 67675  96.6409 118.8905 0017376 223.1077 136.8802 15.22342211   949
2026-023C               
1 67676U 26023C   26042.95869667  .00012628  00000+0  54615-3 0  9997
2 67676  96.6443 118.9020 0018591 212.4037 147.6061 15.22403323  1102
2026-023D               
1 67677U 26023D   26042.95912356  .00012401  00000+0  53823-3 0  9991
2 67677  96.6477 118.8852 0018712 217.8144 142.1780 15.22284588   933
2026-023E               
1 67678U 26023E   26042.82735421  .00013727  00000+0  59393-3 0  9994
2 67678  96.6369 118.7768 0018578 217.5890 142.4051 15.22371343   912
2026-023F               
1 67679U 26023F   26042.95821454  .00013112  00000+0  56469-3 0  9990
2 67679  96.6376 121.3889 0020519 211.4890 148.5122 15.22504294   926
2026-023G               
1 67680U 26023G   26042.76119911  .00004260  00000+0  18544-3 0  9995
2 67680  96.6308 121.2169 0021981 208.3069 151.6977 15.22461471   898
2026-023H               
1 67681U 26023H   26042.76104727  .00003043  00000+0  13313-3 0  9992
2 67681  96.6434 121.2090 0021935 207.5112 152.4967 15.22485070   890
2026-023J               
1 67682U 26023J   26042.95812766  .00015195  00000+0  65241-3 0  9991
2 67682  96.6404 121.3983 0022314 204.0429 155.9770 15.22542120   929
ISS OBJECT XZ           
1 67683U 98067XZ  26042.88614733  .00038506  00000+0  68442-3 0  9992
2 67683  51.6304 199.8510 0010786 103.0439 257.1755 15.49733189   783
GXIBA-1                 
1 67684U 98067YA  26042.94846777  .00073449  00000+0  12609-2 0  9993
2 67684  51.6302 199.5178 0012671  97.8195 262.4233 15.50407338   790
